[{"OBJECT_NAME":"STARLINK-32925","OBJECT_ID":"2025-037Q","EPOCH":"2026-03-09T22:33:32.029920","MEAN_MOTION":14.98349057,"ECCENTRICITY":0.00027736,"INCLINATION":70.0031,"RA_OF_ASC_NODE":353.6578,"ARG_OF_PERICENTER":277.0529,"MEAN_ANOMALY":83.0315,"EPHEMERIS_TYPE":0,"CLASSIFICATION_TYPE":"U","NORAD_CAT_ID":63091,"ELEMENT_SET_NO":999,"REV_AT_EPOCH":5858,"BSTAR":0.0010114235,"MEAN_MOTION_DOT":0.00012002,"MEAN_MOTION_DDOT":0},{"OBJECT_NAME":"FENGYUN 1C DEB","OBJECT_ID":"1999-025BQF","EPOCH":"2026-03-08T19:58:36.101856","MEAN_MOTION":15.15826086,"ECCENTRICITY":0.00798835,"INCLINATION":98.9812,"RA_OF_ASC_NODE":89.4872,"ARG_OF_PERICENTER":83.7388,"MEAN_ANOMALY":277.2932,"EPHEMERIS_TYPE":0,"CLASSIFICATION_TYPE":"U","NORAD_CAT_ID":31327,"ELEMENT_SET_NO":999,"REV_AT_EPOCH":1401,"BSTAR":0.0018254058,"MEAN_MOTION_DOT":0.00037915,"MEAN_MOTION_DDOT":0}]
